ONEWEB-0159             
1 48062U 21025W   26190.28245088  .00000015  00000+0  54423-5 0  9993
2 48062  87.8985 315.8184 0002152  99.5838 260.5535 13.13469135256509
ONEWEB-0164             
1 48063U 21025X   26190.64471868  .00000414  00000+0  10995-2 0  9997
2 48063  87.8982 315.7528 0001889 101.2167 258.9175 13.13469487256534
ONEWEB-0167             
1 48064U 21025Y   26190.29176702 -.00000184  00000+0 -53824-3 0  9993
2 48064  87.8974 315.8306 0002421 111.6516 248.4871 13.13469442256478
ONEWEB-0166             
1 48065U 21025Z   26189.78137470  .00000016  00000+0  82933-5 0  9992
2 48065  87.8989 315.9059 0001958  97.6784 262.4568 13.13470283256480
ONEWEB-0151             
1 48066U 21025AA  26190.62101190 -.00000131  00000+0 -39243-3 0  9992
2 48066  87.8965 315.7546 0001923 105.2804 254.8538 13.13470217256530
ONEWEB-0170             
1 48067U 21025AB  26190.62947469  .00000108  00000+0  26027-3 0  9998
2 48067  87.8974 315.7549 0001683 116.8957 243.2344 13.13469860256498
ONEWEB-0168             
1 48068U 21025AC  26189.85246502 -.00000122  00000+0 -36913-3 0  9995
2 48068  87.8985 315.9093 0001989 100.9270 259.2083 13.13469495256400
ONEWEB-0173             
1 48069U 21025AD  26190.30106805 -.00000273  00000+0 -78266-3 0  9993
2 48069  87.8976 315.8212 0002284 103.0214 257.1171 13.13469668256704
ONEWEB-0171             
1 48070U 21025AE  26190.64302448  .00000366  00000+0  96685-3 0  9999
2 48070  87.8974 315.7604 0001912 101.7729 258.3615 13.13469605256562
ONEWEB-0172             
1 48071U 21025AF  26190.62270807 -.00000041  00000+0 -14821-3 0  9995
2 48071  87.8983 315.7562 0002054 103.6023 256.5335 13.13471131257457
ONEWEB-0174             
1 48072U 21025AG  26190.29937797 -.00000269  00000+0 -77099-3 0  9995
2 48072  87.8982 315.8191 0001978  95.7535 264.3820 13.13469181256737
ONEWEB-0175             
1 48073U 21025AH  26190.63456051  .00000239  00000+0  61972-3 0  9991
2 48073  87.8977 315.7384 0001991 111.6138 248.5203 13.13470234256434
ONEWEB-0177             
1 48074U 21025AJ  26190.64641552  .00000127  00000+0  31266-3 0  9994
2 48074  87.8986 315.7526 0001965  96.6400 263.4953 13.13468758256625
ONEWEB-0178             
1 48075U 21025AK  26190.28428543 -.00000016  00000+0 -79787-4 0  9998
2 48075  87.8972 315.8354 0002108 106.2387 253.8975 13.13469923256625
ONEWEB-0108             
1 48076U 21025AL  26190.62440187  .00000004  00000+0 -24361-4 0  9999
2 48076  87.8977 315.7505 0001755  96.5914 263.5415 13.13470350256591
ONEWEB-0169             
1 48077U 21025AM  26190.27568057  .00000175  00000+0  44443-3 0  9998
2 48077  87.8988 315.8237 0002025  94.6036 265.5324 13.13469031255204
