{"fetched_at":"2026-07-10T07:58:41.598Z","source":"https://celestrak.org/NORAD/elements/gp.php?GROUP=oneweb&FORMAT=JSON","constellation":"oneweb","records":[{"OBJECT_NAME":"ONEWEB-0159","OBJECT_ID":"2021-025W","EPOCH":"2026-07-09T06:46:43.756032","CLASSIFICATION_TYPE":"U","MEAN_MOTION":13.13469135,"ECCENTRICITY":0.00021525,"INCLINATION":87.8985,"RA_OF_ASC_NODE":315.8184,"ARG_OF_PERICENTER":99.5838,"MEAN_ANOMALY":260.5535,"EPHEMERIS_TYPE":0,"NORAD_CAT_ID":48062,"ELEMENT_SET_NO":999,"REV_AT_EPOCH":25650,"BSTAR":0.000005442308,"MEAN_MOTION_DOT":1.5e-7,"MEAN_MOTION_DDOT":0},{"OBJECT_NAME":"ONEWEB-0164","OBJECT_ID":"2021-025X","EPOCH":"2026-07-09T15:28:23.693952","CLASSIFICATION_TYPE":"U","MEAN_MOTION":13.13469487,"ECCENTRICITY":0.0001889,"INCLINATION":87.8982,"RA_OF_ASC_NODE":315.7528,"ARG_OF_PERICENTER":101.2167,"MEAN_ANOMALY":258.9175,"EPHEMERIS_TYPE":0,"NORAD_CAT_ID":48063,"ELEMENT_SET_NO":999,"REV_AT_EPOCH":25653,"BSTAR":0.0010995,"MEAN_MOTION_DOT":0.00000414,"MEAN_MOTION_DDOT":0},{"OBJECT_NAME":"ONEWEB-0167","OBJECT_ID":"2021-025Y","EPOCH":"2026-07-09T07:00:08.670528","CLASSIFICATION_TYPE":"U","MEAN_MOTION":13.13469442,"ECCENTRICITY":0.00024218,"INCLINATION":87.8974,"RA_OF_ASC_NODE":315.8306,"ARG_OF_PERICENTER":111.6516,"MEAN_ANOMALY":248.4871,"EPHEMERIS_TYPE":0,"NORAD_CAT_ID":48064,"ELEMENT_SET_NO":999,"REV_AT_EPOCH":25647,"BSTAR":-0.00053823975,"MEAN_MOTION_DOT":-0.00000184,"MEAN_MOTION_DDOT":0},{"OBJECT_NAME":"ONEWEB-0166","OBJECT_ID":"2021-025Z","EPOCH":"2026-07-08T18:45:10.774080","CLASSIFICATION_TYPE":"U","MEAN_MOTION":13.13470283,"ECCENTRICITY":0.0001958,"INCLINATION":87.8989,"RA_OF_ASC_NODE":315.9059,"ARG_OF_PERICENTER":97.6784,"MEAN_ANOMALY":262.4568,"EPHEMERIS_TYPE":0,"NORAD_CAT_ID":48065,"ELEMENT_SET_NO":999,"REV_AT_EPOCH":25648,"BSTAR":0.000008293305,"MEAN_MOTION_DOT":1.6e-7,"MEAN_MOTION_DDOT":0},{"OBJECT_NAME":"ONEWEB-0151","OBJECT_ID":"2021-025AA","EPOCH":"2026-07-09T14:54:15.428160","CLASSIFICATION_TYPE":"U","MEAN_MOTION":13.13470217,"ECCENTRICITY":0.0001923,"INCLINATION":87.8965,"RA_OF_ASC_NODE":315.7546,"ARG_OF_PERICENTER":105.2804,"MEAN_ANOMALY":254.8538,"EPHEMERIS_TYPE":0,"NORAD_CAT_ID":48066,"ELEMENT_SET_NO":999,"REV_AT_EPOCH":25653,"BSTAR":-0.00039243,"MEAN_MOTION_DOT":-0.00000131,"MEAN_MOTION_DDOT":0},{"OBJECT_NAME":"ONEWEB-0170","OBJECT_ID":"2021-025AB","EPOCH":"2026-07-09T15:06:26.613216","CLASSIFICATION_TYPE":"U","MEAN_MOTION":13.1346986,"ECCENTRICITY":0.0001683,"INCLINATION":87.8974,"RA_OF_ASC_NODE":315.7549,"ARG_OF_PERICENTER":116.8957,"MEAN_ANOMALY":243.2344,"EPHEMERIS_TYPE":0,"NORAD_CAT_ID":48067,"ELEMENT_SET_NO":999,"REV_AT_EPOCH":25649,"BSTAR":0.00026027,"MEAN_MOTION_DOT":0.00000108,"MEAN_MOTION_DDOT":0},{"OBJECT_NAME":"ONEWEB-0168","OBJECT_ID":"2021-025AC","EPOCH":"2026-07-08T20:27:32.977728","CLASSIFICATION_TYPE":"U","MEAN_MOTION":13.13469495,"ECCENTRICITY":0.00019897,"INCLINATION":87.8985,"RA_OF_ASC_NODE":315.9093,"ARG_OF_PERICENTER":100.927,"MEAN_ANOMALY":259.2083,"EPHEMERIS_TYPE":0,"NORAD_CAT_ID":48068,"ELEMENT_SET_NO":999,"REV_AT_EPOCH":25640,"BSTAR":-0.00036913338,"MEAN_MOTION_DOT":-0.00000122,"MEAN_MOTION_DDOT":0},{"OBJECT_NAME":"ONEWEB-0173","OBJECT_ID":"2021-025AD","EPOCH":"2026-07-09T07:13:32.279520","CLASSIFICATION_TYPE":"U","MEAN_MOTION":13.13469668,"ECCENTRICITY":0.0002284,"INCLINATION":87.8976,"RA_OF_ASC_NODE":315.8212,"ARG_OF_PERICENTER":103.0214,"MEAN_ANOMALY":257.1171,"EPHEMERIS_TYPE":0,"NORAD_CAT_ID":48069,"ELEMENT_SET_NO":999,"REV_AT_EPOCH":25670,"BSTAR":-0.00078266175,"MEAN_MOTION_DOT":-0.00000273,"MEAN_MOTION_DDOT":0},{"OBJECT_NAME":"ONEWEB-0171","OBJECT_ID":"2021-025AE","EPOCH":"2026-07-09T15:25:57.315072","CLASSIFICATION_TYPE":"U","MEAN_MOTION":13.13469605,"ECCENTRICITY":0.0001912,"INCLINATION":87.8974,"RA_OF_ASC_NODE":315.7604,"ARG_OF_PERICENTER":101.7729,"MEAN_ANOMALY":258.3615,"EPHEMERIS_TYPE":0,"NORAD_CAT_ID":48070,"ELEMENT_SET_NO":999,"REV_AT_EPOCH":25656,"BSTAR":0.00096685,"MEAN_MOTION_DOT":0.00000366,"MEAN_MOTION_DDOT":0},{"OBJECT_NAME":"ONEWEB-0172","OBJECT_ID":"2021-025AF","EPOCH":"2026-07-09T14:56:41.977248","CLASSIFICATION_TYPE":"U","MEAN_MOTION":13.13471131,"ECCENTRICITY":0.0002054,"INCLINATION":87.8983,"RA_OF_ASC_NODE":315.7562,"ARG_OF_PERICENTER":103.6023,"MEAN_ANOMALY":256.5335,"EPHEMERIS_TYPE":0,"NORAD_CAT_ID":48071,"ELEMENT_SET_NO":999,"REV_AT_EPOCH":25745,"BSTAR":-0.00014821,"MEAN_MOTION_DOT":-4.1e-7,"MEAN_MOTION_DDOT":0},{"OBJECT_NAME":"ONEWEB-0174","OBJECT_ID":"2021-025AG","EPOCH":"2026-07-09T07:11:06.256608","CLASSIFICATION_TYPE":"U","MEAN_MOTION":13.13469181,"ECCENTRICITY":0.0001978,"INCLINATION":87.8982,"RA_OF_ASC_NODE":315.8191,"ARG_OF_PERICENTER":95.7535,"MEAN_ANOMALY":264.382,"EPHEMERIS_TYPE":0,"NORAD_CAT_ID":48072,"ELEMENT_SET_NO":999,"REV_AT_EPOCH":25673,"BSTAR":-0.00077099001,"MEAN_MOTION_DOT":-0.00000269,"MEAN_MOTION_DDOT":0},{"OBJECT_NAME":"ONEWEB-0175","OBJECT_ID":"2021-025AH","EPOCH":"2026-07-09T15:13:46.028064","CLASSIFICATION_TYPE":"U","MEAN_MOTION":13.13470234,"ECCENTRICITY":0.0001991,"INCLINATION":87.8977,"RA_OF_ASC_NODE":315.7384,"ARG_OF_PERICENTER":111.6138,"MEAN_ANOMALY":248.5203,"EPHEMERIS_TYPE":0,"NORAD_CAT_ID":48073,"ELEMENT_SET_NO":999,"REV_AT_EPOCH":25643,"BSTAR":0.00061972,"MEAN_MOTION_DOT":0.00000239,"MEAN_MOTION_DDOT":0},{"OBJECT_NAME":"ONEWEB-0177","OBJECT_ID":"2021-025AJ","EPOCH":"2026-07-09T15:30:50.300928","CLASSIFICATION_TYPE":"U","MEAN_MOTION":13.13468758,"ECCENTRICITY":0.0001965,"INCLINATION":87.8986,"RA_OF_ASC_NODE":315.7526,"ARG_OF_PERICENTER":96.64,"MEAN_ANOMALY":263.4953,"EPHEMERIS_TYPE":0,"NORAD_CAT_ID":48074,"ELEMENT_SET_NO":999,"REV_AT_EPOCH":25662,"BSTAR":0.00031266,"MEAN_MOTION_DOT":0.00000127,"MEAN_MOTION_DDOT":0},{"OBJECT_NAME":"ONEWEB-0178","OBJECT_ID":"2021-025AK","EPOCH":"2026-07-09T06:49:22.261152","CLASSIFICATION_TYPE":"U","MEAN_MOTION":13.13469923,"ECCENTRICITY":0.00021088,"INCLINATION":87.8972,"RA_OF_ASC_NODE":315.8354,"ARG_OF_PERICENTER":106.2387,"MEAN_ANOMALY":253.8975,"EPHEMERIS_TYPE":0,"NORAD_CAT_ID":48075,"ELEMENT_SET_NO":999,"REV_AT_EPOCH":25662,"BSTAR":-0.000079787322,"MEAN_MOTION_DOT":-1.6e-7,"MEAN_MOTION_DDOT":0},{"OBJECT_NAME":"ONEWEB-0108","OBJECT_ID":"2021-025AL","EPOCH":"2026-07-09T14:59:08.321568","CLASSIFICATION_TYPE":"U","MEAN_MOTION":13.1347035,"ECCENTRICITY":0.0001755,"INCLINATION":87.8977,"RA_OF_ASC_NODE":315.7505,"ARG_OF_PERICENTER":96.5914,"MEAN_ANOMALY":263.5415,"EPHEMERIS_TYPE":0,"NORAD_CAT_ID":48076,"ELEMENT_SET_NO":999,"REV_AT_EPOCH":25659,"BSTAR":-0.000024361,"MEAN_MOTION_DOT":4e-8,"MEAN_MOTION_DDOT":0},{"OBJECT_NAME":"ONEWEB-0169","OBJECT_ID":"2021-025AM","EPOCH":"2026-07-09T06:36:58.801248","CLASSIFICATION_TYPE":"U","MEAN_MOTION":13.13469031,"ECCENTRICITY":0.0002025,"INCLINATION":87.8988,"RA_OF_ASC_NODE":315.8237,"ARG_OF_PERICENTER":94.6036,"MEAN_ANOMALY":265.5324,"EPHEMERIS_TYPE":0,"NORAD_CAT_ID":48077,"ELEMENT_SET_NO":999,"REV_AT_EPOCH":25520,"BSTAR":0.0004444269,"MEAN_MOTION_DOT":0.00000175,"MEAN_MOTION_DDOT":0}]}
